[{"OBJECT_NAME":"STARLINK-3155","OBJECT_ID":"2021-115R","EPOCH":"2026-03-09T12:38:53.381472","MEAN_MOTION":15.08843236,"ECCENTRICITY":0.0001405,"INCLINATION":53.2178,"RA_OF_ASC_NODE":159.8504,"ARG_OF_PERICENTER":102.4242,"MEAN_ANOMALY":257.6908,"EPHEMERIS_TYPE":0,"CLASSIFICATION_TYPE":"U","NORAD_CAT_ID":49739,"ELEMENT_SET_NO":999,"REV_AT_EPOCH":23536,"BSTAR":1.1960171e-5,"MEAN_MOTION_DOT":-9.8e-7,"MEAN_MOTION_DDOT":0},{"OBJECT_NAME":"OBJECT A","OBJECT_ID":"2025-197A","EPOCH":"2026-03-09T23:57:28.367136","MEAN_MOTION":15.09670549,"ECCENTRICITY":0.0013887,"INCLINATION":97.4116,"RA_OF_ASC_NODE":254.3664,"ARG_OF_PERICENTER":14.3167,"MEAN_ANOMALY":345.8453,"EPHEMERIS_TYPE":0,"CLASSIFICATION_TYPE":"U","NORAD_CAT_ID":65488,"ELEMENT_SET_NO":999,"REV_AT_EPOCH":2804,"BSTAR":0.00030852597,"MEAN_MOTION_DOT":4.917e-5,"MEAN_MOTION_DDOT":0}]
